{
  "type": "FeatureCollection",
  "features": [
    {
      "type": "Feature",
      "properties": {
        "norad_id": 66625,
        "name": "STARLINK-35929",
        "group": "last-30-days",
        "lat": -53.131076345425356,
        "lon": 133.17984026024092,
        "alt_km": 333.9523351624175,
        "timestamp": "2025-12-05T14:45:14.102699+00:00",
        "meta_object_name": "STARLINK-35929",
        "meta_object_id": "2025-271J",
        "meta_epoch": "2025-12-04T16:22:02.138016",
        "meta_mean_motion": 15.80678643,
        "meta_eccentricity": 0.0002822,
        "meta_inclination": 53.1566,
        "meta_ra_of_asc_node": 226.7252,
        "meta_arg_of_pericenter": 183.9562,
        "meta_mean_anomaly": 176.1438,
        "meta_ephemeris_type": 0,
        "meta_classification_type": "U",
        "meta_norad_cat_id": 66625,
        "meta_element_set_no": 999,
        "meta_rev_at_epoch": 294,
        "meta_bstar": -0.00077252,
        "meta_mean_motion_dot": -0.00149281,
        "meta_mean_motion_ddot": 0,
        "tle_line1": "1 66625U 25271J   25338.68196919 -.00149281  00000+0 -77252-3 0  9994",
        "tle_line2": "2 66625  53.1566 226.7252 0002822 183.9562 176.1438 15.80678643  2940"
      },
      "geometry": {
        "type": "Point",
        "coordinates": [
          133.17984026024092,
          -53.131076345425356
        ]
      }
    },
    {
      "type": "Feature",
      "properties": {
        "norad_id": 66626,
        "name": "STARLINK-35902",
        "group": "last-30-days",
        "lat": -0.5774450001488804,
        "lon": -138.50876557421196,
        "alt_km": 176.29120019455604,
        "timestamp": "2025-12-05T14:45:14.102730+00:00",
        "meta_object_name": "STARLINK-35902",
        "meta_object_id": "2025-271K",
        "meta_epoch": "2025-12-04T16:20:49.968096",
        "meta_mean_motion": 15.86445814,
        "meta_eccentricity": 0.0034757,
        "meta_inclination": 53.156,
        "meta_ra_of_asc_node": 226.7204,
        "meta_arg_of_pericenter": 215.7244,
        "meta_mean_anomaly": 144.1456,
        "meta_ephemeris_type": 0,
        "meta_classification_type": "U",
        "meta_norad_cat_id": 66626,
        "meta_element_set_no": 999,
        "meta_rev_at_epoch": 294,
        "meta_bstar": 0.043583,
        "meta_mean_motion_dot": 0.08830048,
        "meta_mean_motion_ddot": 0.12235,
        "tle_line1": "1 66626U 25271K   25338.68113389  .08830048  12235+0  43583-1 0  9990",
        "tle_line2": "2 66626  53.1560 226.7204 0034757 215.7244 144.1456 15.86445814  2948"
      },
      "geometry": {
        "type": "Point",
        "coordinates": [
          -138.50876557421196,
          -0.5774450001488804
        ]
      }
    },
    {
      "type": "Feature",
      "properties": {
        "norad_id": 66627,
        "name": "STARLINK-35904",
        "group": "last-30-days",
        "lat": -52.47536650664267,
        "lon": 144.5271566782298,
        "alt_km": 334.854378465614,
        "timestamp": "2025-12-05T14:45:14.102741+00:00",
        "meta_object_name": "STARLINK-35904",
        "meta_object_id": "2025-271L",
        "meta_epoch": "2025-12-04T07:14:32.665344",
        "meta_mean_motion": 15.81754279,
        "meta_eccentricity": 0.0004977,
        "meta_inclination": 53.1565,
        "meta_ra_of_asc_node": 228.6202,
        "meta_arg_of_pericenter": 9.6313,
        "meta_mean_anomaly": 350.4805,
        "meta_ephemeris_type": 0,
        "meta_classification_type": "U",
        "meta_norad_cat_id": 66627,
        "meta_element_set_no": 999,
        "meta_rev_at_epoch": 284,
        "meta_bstar": -0.0026856,
        "meta_mean_motion_dot": -0.00521766,
        "meta_mean_motion_ddot": 0,
        "tle_line1": "1 66627U 25271L   25338.30176696 -.00521766  00000+0 -26856-2 0  9990",
        "tle_line2": "2 66627  53.1565 228.6202 0004977   9.6313 350.4805 15.81754279  2843"
      },
      "geometry": {
        "type": "Point",
        "coordinates": [
          144.5271566782298,
          -52.47536650664267
        ]
      }
    },
    {
      "type": "Feature",
      "properties": {
        "norad_id": 66628,
        "name": "STARLINK-35862",
        "group": "last-30-days",
        "lat": -52.591728297029746,
        "lon": 143.39173410049966,
        "alt_km": 334.5295666732891,
        "timestamp": "2025-12-05T14:45:14.102752+00:00",
        "meta_object_name": "STARLINK-35862",
        "meta_object_id": "2025-271M",
        "meta_epoch": "2025-12-04T16:20:16.507104",
        "meta_mean_motion": 15.80528077,
        "meta_eccentricity": 0.0002691,
        "meta_inclination": 53.1569,
        "meta_ra_of_asc_node": 226.7167,
        "meta_arg_of_pericenter": 198.6542,
        "meta_mean_anomaly": 161.4382,
        "meta_ephemeris_type": 0,
        "meta_classification_type": "U",
        "meta_norad_cat_id": 66628,
        "meta_element_set_no": 999,
        "meta_rev_at_epoch": 294,
        "meta_bstar": -0.0011743,
        "meta_mean_motion_dot": -0.00223094,
        "meta_mean_motion_ddot": 0,
        "tle_line1": "1 66628U 25271M   25338.68074661 -.00223094  00000+0 -11743-2 0  9993",
        "tle_line2": "2 66628  53.1569 226.7167 0002691 198.6542 161.4382 15.80528077  2946"
      },
      "geometry": {
        "type": "Point",
        "coordinates": [
          143.39173410049966,
          -52.591728297029746
        ]
      }
    },
    {
      "type": "Feature",
      "properties": {
        "norad_id": 66629,
        "name": "STARLINK-35956",
        "group": "last-30-days",
        "lat": -52.56096125662452,
        "lon": 143.70142580285105,
        "alt_km": 337.49616043345304,
        "timestamp": "2025-12-05T14:45:14.102762+00:00",
        "meta_object_name": "STARLINK-35956",
        "meta_object_id": "2025-271N",
        "meta_epoch": "2025-12-04T16:19:41.434752",
        "meta_mean_motion": 15.80317753,
        "meta_eccentricity": 7.27e-05,
        "meta_inclination": 53.1566,
        "meta_ra_of_asc_node": 226.7139,
        "meta_arg_of_pericenter": 319.7999,
        "meta_mean_anomaly": 40.2969,
        "meta_ephemeris_type": 0,
        "meta_classification_type": "U",
        "meta_norad_cat_id": 66629,
        "meta_element_set_no": 999,
        "meta_rev_at_epoch": 294,
        "meta_bstar": -0.0035198,
        "meta_mean_motion_dot": -0.00630509,
        "meta_mean_motion_ddot": 0,
        "tle_line1": "1 66629U 25271N   25338.68034068 -.00630509  00000+0 -35198-2 0  9994",
        "tle_line2": "2 66629  53.1566 226.7139 0000727 319.7999  40.2969 15.80317753  2945"
      },
      "geometry": {
        "type": "Point",
        "coordinates": [
          143.70142580285105,
          -52.56096125662452
        ]
      }
    },
    {
      "type": "Feature",
      "properties": {
        "norad_id": 66630,
        "name": "STARLINK-35949",
        "group": "last-30-days",
        "lat": -46.4119115196094,
        "lon": 170.0247250783145,
        "alt_km": 312.7765030820128,
        "timestamp": "2025-12-05T14:45:14.102771+00:00",
        "meta_object_name": "STARLINK-35949",
        "meta_object_id": "2025-271P",
        "meta_epoch": "2025-12-04T16:18:42.866784",
        "meta_mean_motion": 15.82414283,
        "meta_eccentricity": 0.0013011,
        "meta_inclination": 53.1561,
        "meta_ra_of_asc_node": 226.7087,
        "meta_arg_of_pericenter": 255.5421,
        "meta_mean_anomaly": 104.4159,
        "meta_ephemeris_type": 0,
        "meta_classification_type": "U",
        "meta_norad_cat_id": 66630,
        "meta_element_set_no": 999,
        "meta_rev_at_epoch": 294,
        "meta_bstar": 0.0072798,
        "meta_mean_motion_dot": 0.01751673,
        "meta_mean_motion_ddot": 0,
        "tle_line1": "1 66630U 25271P   25338.67966281  .01751673  00000+0  72798-2 0  9998",
        "tle_line2": "2 66630  53.1561 226.7087 0013011 255.5421 104.4159 15.82414283  2943"
      },
      "geometry": {
        "type": "Point",
        "coordinates": [
          170.0247250783145,
          -46.4119115196094
        ]
      }
    },
    {
      "type": "Feature",
      "properties": {
        "norad_id": 66631,
        "name": "STARLINK-35965",
        "group": "last-30-days",
        "lat": -49.8570177002073,
        "lon": 159.25648584181346,
        "alt_km": 333.99857152261484,
        "timestamp": "2025-12-05T14:45:14.102781+00:00",
        "meta_object_name": "STARLINK-35965",
        "meta_object_id": "2025-271Q",
        "meta_epoch": "2025-12-04T07:12:21.034944",
        "meta_mean_motion": 15.81776671,
        "meta_eccentricity": 0.0001135,
        "meta_inclination": 53.1568,
        "meta_ra_of_asc_node": 228.6092,
        "meta_arg_of_pericenter": 128.5518,
        "meta_mean_anomaly": 231.5607,
        "meta_ephemeris_type": 0,
        "meta_classification_type": "U",
        "meta_norad_cat_id": 66631,
        "meta_element_set_no": 999,
        "meta_rev_at_epoch": 288,
        "meta_bstar": -0.0020618,
        "meta_mean_motion_dot": -0.004058,
        "meta_mean_motion_ddot": 0,
        "tle_line1": "1 66631U 25271Q   25338.30024346 -.00405800  00000+0 -20618-2 0  9999",
        "tle_line2": "2 66631  53.1568 228.6092 0001135 128.5518 231.5607 15.81776671  2882"
      },
      "geometry": {
        "type": "Point",
        "coordinates": [
          159.25648584181346,
          -49.8570177002073
        ]
      }
    }
  ]
}